OBJECT_NAME,OBJECT_ID,EPOCH,MEAN_MOTION,ECCENTRICITY,INCLINATION,RA_OF_ASC_NODE,ARG_OF_PERICENTER,MEAN_ANOMALY,EPHEMERIS_TYPE,CLASSIFICATION_TYPE,NORAD_CAT_ID,ELEMENT_SET_NO,REV_AT_EPOCH,BSTAR,MEAN_MOTION_DOT,MEAN_MOTION_DDOT
STARLINK-36296,2026-063A,2026-07-04T19:57:02.127168,15.49296128,.00010791,97.2852,330.6617,100.7924,259.3449,0,U,68380,999,1603,.2190922E-2,.121374E-2,0
STARLINK-37111,2026-063B,2026-07-04T19:58:14.687616,15.33478505,.00013179,97.2857,327.7599,257.8394,102.2702,0,U,68381,999,1584,.13180985E-2,.42765E-3,0
STARLINK-36946,2026-063C,2026-07-04T15:55:30.188640,15.33489363,.00004694,97.2875,327.6854,95.0261,265.1036,0,U,68382,999,1582,.15612885E-2,.50739E-3,0
STARLINK-37121,2026-063D,2026-07-04T20:06:05.668704,15.33511762,.00013251,97.2849,327.7522,252.1944,107.9154,0,U,68383,999,1584,.20233879E-2,.65959E-3,0
STARLINK-37137,2026-063E,2026-07-05T06:00:04.999968,15.33367577,.00003655,97.2861,328.2679,84.1831,286.7001,0,U,68384,999,583,.23604995E-2,.76722E-3,0
STARLINK-37128,2026-063F,2026-07-04T19:34:45.804288,15.33491207,.00008895,97.2862,327.7807,128.7447,231.3876,0,U,68385,999,1584,.14648421E-2,.47583E-3,0
STARLINK-37198,2026-063G,2026-07-04T20:13:54.517440,15.33478492,.00010384,97.2858,327.8961,255.2985,104.8142,0,U,68386,999,1585,.12703699E-2,.41205E-3,0
STARLINK-37223,2026-063H,2026-07-04T08:33:04.720032,15.33474522,.00017764,97.2877,327.3331,110.5100,249.6334,0,U,68387,999,1577,.1168808E-2,.37884E-3,0
STARLINK-37203,2026-063J,2026-07-04T20:41:18.804480,15.33481809,.00007523,97.2862,327.8738,247.2735,112.8428,0,U,68388,999,1585,.14092574E-2,.4575E-3,0
STARLINK-37197,2026-063K,2026-07-04T20:25:38.930592,15.33485718,.00016803,97.2853,327.8836,272.0083,88.0967,0,U,68389,999,1585,.11997666E-2,.38908E-3,0
STARLINK-37193,2026-063L,2026-07-05T04:34:27.578208,15.33455516,.00015377,97.2863,331.0892,83.9599,276.1819,0,U,68390,999,1609,.69861711E-3,.22554E-3,0
STARLINK-37216,2026-063M,2026-07-04T08:48:44.513568,15.33466016,.00009783,97.2861,327.3220,93.0299,267.1056,0,U,68391,999,1577,.11784085E-2,.38186E-3,0
STARLINK-37215,2026-063N,2026-07-04T22:46:36.275808,15.33482469,.00005157,97.2853,327.9040,189.9861,170.1372,0,U,68392,999,1586,.10206201E-2,.33057E-3,0
STARLINK-37184,2026-063P,2026-07-04T20:49:08.697792,15.33488129,.00006882,97.2873,327.8611,314.0906,46.0280,0,U,68393,999,1585,.1344623E-2,.43645E-3,0
STARLINK-37157,2026-063Q,2026-07-04T20:17:49.893504,15.33462362,.00003222,97.2855,327.8953,72.7309,287.3969,0,U,68394,999,1585,.70580464E-3,.22792E-3,0
STARLINK-37172,2026-063R,2026-07-04T20:02:09.947040,15.33481954,.00003791,97.2860,327.7564,253.9824,106.1377,0,U,68395,999,1584,.19792552E-2,.64444E-3,0
STARLINK-37190,2026-063S,2026-07-04T22:03:32.184000,15.33479499,.00015195,97.2865,327.9483,182.4606,177.6630,0,U,68396,999,1586,.69456683E-3,.22439E-3,0
STARLINK-37194,2026-063T,2026-07-04T21:00:53.728704,15.33486778,.00003862,97.2885,327.8540,351.9159,8.2077,0,U,68397,999,1585,.14406085E-2,.46783E-3,0
STARLINK-37220,2026-063U,2026-07-04T19:42:35.288928,15.33476230,.00003899,97.2870,327.7750,250.0399,110.0802,0,U,68398,999,1584,.15783762E-2,.51278E-3,0
STARLINK-37187,2026-063V,2026-07-04T20:09:59.502528,15.33501152,.00014927,97.2846,327.8969,251.7057,108.4024,0,U,68399,999,1585,.15075681E-2,.48998E-3,0
STARLINK-36235,2026-063W,2026-07-04T20:53:04.160256,15.33490122,.00006215,97.2871,327.8634,97.9362,262.1951,0,U,68400,999,1585,.17198229E-2,.55939E-3,0
STARLINK-37175,2026-063X,2026-07-05T05:18:08.367552,15.33486178,.00016309,97.2861,328.1486,82.3666,277.7762,0,U,68401,999,1590,.13755545E-2,.44655E-3,0
STARLINK-36360,2026-063Y,2026-07-04T20:56:59.743680,15.33501040,.00002969,97.2868,327.8590,343.1429,16.9804,0,U,68402,999,1585,.1532165E-2,.49803E-3,0
STARLINK-37218,2026-063Z,2026-07-05T06:00:04.999968,15.36887405,.00013018,97.2858,331.1175,89.4856,182.1829,0,U,68403,999,600,.23673815E-2,.86155E-3,0
STARLINK-37188,2026-063AA,2026-07-04T15:39:50.426208,15.33492728,.00006932,97.2881,327.6995,246.5725,113.5445,0,U,68404,999,1582,.1378276E-2,.44752E-3,0
SHIYAN-33,2026-064A,2026-07-05T07:22:23.610144,15.24088983,.00125144,97.4613,261.7428,239.1769,120.8237,0,U,68405,999,1525,.27972182E-3,.6735E-4,0
LPNTSAT-001 (IOD-1),2026-065A,2026-07-04T11:20:24.736128,15.18630171,.00149753,97.3992,65.6155,308.0937,51.8946,0,U,68408,999,1488,.19741169E-3,.403E-4,0
LPNTSAT-002 (IOD-2),2026-065B,2026-07-04T21:47:06.782496,15.19490031,.00120956,97.3979,66.0867,301.9474,58.0584,0,U,68409,999,1493,.5917409E-3,.12525E-3,0
XINZHENGCHENG-01,2026-066A,2026-07-05T07:32:07.972224,14.88425113,.00252029,84.9652,216.2123,185.1718,174.9250,0,U,68412,999,1442,.60306024E-4,.592E-5,0
XINZHENGCHENG 01,2026-066C,2026-07-05T04:01:06.610368,14.88659761,.00257556,84.9648,216.2862,186.3394,173.7508,0,U,68414,999,1440,.11875435E-3,.1143E-4,0
