STARLINK-36296          
1 68380U 26063A   26185.83127462  .00121374  00000+0  21909-2 0  9997
2 68380  97.2852 330.6617 0001079 100.7924 259.3449 15.49296128 16039
STARLINK-37111          
1 68381U 26063B   26185.83211444  .00042765  00000+0  13181-2 0  9991
2 68381  97.2857 327.7599 0001317 257.8394 102.2702 15.33478505 15841
STARLINK-36946          
1 68382U 26063C   26185.66354385  .00050739  00000+0  15613-2 0  9997
2 68382  97.2875 327.6854 0000469  95.0261 265.1036 15.33489363 15828
STARLINK-37121          
1 68383U 26063D   26185.83756561  .00065959  00000+0  20234-2 0  9994
2 68383  97.2849 327.7522 0001325 252.1944 107.9154 15.33511762 15844
STARLINK-37137          
1 68384U 26063E   26186.25005787  .00076722  00000+0  23605-2 0  9994
2 68384  97.2861 328.2679 0000365  84.1831 286.7001 15.33367577  5837
STARLINK-37128          
1 68385U 26063F   26185.81580792  .00047583  00000+0  14648-2 0  9990
2 68385  97.2862 327.7807 0000889 128.7447 231.3876 15.33491207 15841
STARLINK-37198          
1 68386U 26063G   26185.84299210  .00041205  00000+0  12704-2 0  9992
2 68386  97.2858 327.8961 0001038 255.2985 104.8142 15.33478492 15851
STARLINK-37223          
1 68387U 26063H   26185.35630463  .00037884  00000+0  11688-2 0  9996
2 68387  97.2877 327.3331 0001776 110.5100 249.6334 15.33474522 15772
STARLINK-37203          
1 68388U 26063J   26185.86202320  .00045750  00000+0  14093-2 0  9994
2 68388  97.2862 327.8738 0000752 247.2735 112.8428 15.33481809 15858
STARLINK-37197          
1 68389U 26063K   26185.85114503  .00038908  00000+0  11998-2 0  9997
2 68389  97.2853 327.8836 0001680 272.0083  88.0967 15.33485718 15856
STARLINK-37193          
1 68390U 26063L   26186.19059697  .00022554  00000+0  69862-3 0  9993
2 68390  97.2863 331.0892 0001537  83.9599 276.1819 15.33455516 16096
STARLINK-37216          
1 68391U 26063M   26185.36718187  .00038186  00000+0  11784-2 0  9995
2 68391  97.2861 327.3220 0000978  93.0299 267.1056 15.33466016 15779
STARLINK-37215          
1 68392U 26063N   26185.94903097  .00033057  00000+0  10206-2 0  9996
2 68392  97.2853 327.9040 0000515 189.9861 170.1372 15.33482469 15868
STARLINK-37184          
1 68393U 26063P   26185.86746178  .00043645  00000+0  13446-2 0  9996
2 68393  97.2873 327.8611 0000688 314.0906  46.0280 15.33488129 15853
STARLINK-37157          
1 68394U 26063Q   26185.84571636  .00022792  00000+0  70580-3 0  9993
2 68394  97.2855 327.8953 0000322  72.7309 287.3969 15.33462362 15858
STARLINK-37172          
1 68395U 26063R   26185.83483735  .00064444  00000+0  19793-2 0  9993
2 68395  97.2860 327.7564 0000379 253.9824 106.1377 15.33481954 15847
STARLINK-37190          
1 68396U 26063S   26185.91912250  .00022439  00000+0  69457-3 0  9993
2 68396  97.2865 327.9483 0001519 182.4606 177.6630 15.33479499 15864
STARLINK-37194          
1 68397U 26063T   26185.87562186  .00046783  00000+0  14406-2 0  9999
2 68397  97.2885 327.8540 0000386 351.9159   8.2077 15.33486778 15858
STARLINK-37220          
1 68398U 26063U   26185.82124177  .00051278  00000+0  15784-2 0  9994
2 68398  97.2870 327.7750 0000389 250.0399 110.0802 15.33476230 15842
STARLINK-37187          
1 68399U 26063V   26185.84027202  .00048998  00000+0  15076-2 0  9997
2 68399  97.2846 327.8969 0001492 251.7057 108.4024 15.33501152 15854
STARLINK-36235          
1 68400U 26063W   26185.87018704  .00055939  00000+0  17198-2 0  9990
2 68400  97.2871 327.8634 0000621  97.9362 262.1951 15.33490122 15857
STARLINK-37175          
1 68401U 26063X   26186.22093018  .00044655  00000+0  13756-2 0  9991
2 68401  97.2861 328.1486 0001630  82.3666 277.7762 15.33486178 15906
STARLINK-36360          
1 68402U 26063Y   26185.87291370  .00049803  00000+0  15322-2 0  9994
2 68402  97.2868 327.8590 0000296 343.1429  16.9804 15.33501040 15858
STARLINK-37218          
1 68403U 26063Z   26186.25005787  .00086155  00000+0  23674-2 0  9993
2 68403  97.2858 331.1175 0001301  89.4856 182.1829 15.36887405  6002
STARLINK-37188          
1 68404U 26063AA  26185.65266697  .00044752  00000+0  13783-2 0  9993
2 68404  97.2881 327.6995 0000693 246.5725 113.5445 15.33492728 15822
SHIYAN-33               
1 68405U 26064A   26186.30721771  .00006735  00000+0  27972-3 0  9992
2 68405  97.4613 261.7428 0012514 239.1769 120.8237 15.24088983 15259
LPNTSAT-001 (IOD-1)     
1 68408U 26065A   26185.47250852  .00004030  00000+0  19741-3 0  9991
2 68408  97.3992  65.6155 0014975 308.0937  51.8946 15.18630171 14888
LPNTSAT-002 (IOD-2)     
1 68409U 26065B   26185.90771739  .00012525  00000+0  59174-3 0  9994
2 68409  97.3979  66.0867 0012095 301.9474  58.0584 15.19490031 14931
XINZHENGCHENG-01        
1 68412U 26066A   26186.31398116  .00000592  00000+0  60306-4 0  9990
2 68412  84.9652 216.2123 0025202 185.1718 174.9250 14.88425113 14422
XINZHENGCHENG 01        
1 68414U 26066C   26186.16743762  .00001143  00000+0  11875-3 0  9995
2 68414  84.9648 216.2862 0025755 186.3394 173.7508 14.88659761 14404
